{"type": "FeatureCollection", "features": [ {"type": "Feature", "properties": {"norad_id": 34823, "name": "COSMOS 2251 DEB", "group": "cosmos-2251-debris", "lat": -20.71105242912739, "lon": 78.64376630753264, "alt_km": 822.2827117626484, "timestamp": "2025-12-21T22:41:41.854248+00:00", "meta": {"OBJECT_NAME": "COSMOS 2251 DEB", "OBJECT_ID": "1993-036ABN", "EPOCH": "2025-12-20T12:08:33.613440", "MEAN_MOTION": 14.5497594, "ECCENTRICITY": 0.01541862, "INCLINATION": 74.0426, "RA_OF_ASC_NODE": 87.5785, "ARG_OF_PERICENTER": 170.4185, "MEAN_ANOMALY": 189.9981, "EPHEMERIS_TYPE": 0, "CLASSIFICATION_TYPE": "U", "NORAD_CAT_ID": 34823, "ELEMENT_SET_NO": 999, "REV_AT_EPOCH": 88494, "BSTAR": 0.00040573854, "MEAN_MOTION_DOT": 2.017e-05, "MEAN_MOTION_DDOT": 0}, "tle": {"line1": "1 34823U 93036ABN 25354.50594460  .00002017  00000+0  40574-3 0  9995", "line2": "2 34823  74.0426  87.5785 0154186 170.4185 189.9981 14.54975940884942"}}, "geometry": {"type": "Point", "coordinates": [78.64376630753264, -20.71105242912739]}}, {"type": "Feature", "properties": {"norad_id": 34845, "name": "COSMOS 2251 DEB", "group": "cosmos-2251-debris", "lat": 5.363472469977936, "lon": 132.7089265776202, "alt_km": 736.9140782967997, "timestamp": "2025-12-21T22:41:41.854258+00:00", "meta": {"OBJECT_NAME": "COSMOS 2251 DEB", "OBJECT_ID": "1993-036ABP", "EPOCH": "2025-12-19T17:31:51.884832", "MEAN_MOTION": 14.45872035, "ECCENTRICITY": 0.00225932, "INCLINATION": 74.0244, "RA_OF_ASC_NODE": 135.3011, "ARG_OF_PERICENTER": 295.1391, "MEAN_ANOMALY": 64.7423, "EPHEMERIS_TYPE": 0, "CLASSIFICATION_TYPE": "U", "NORAD_CAT_ID": 34845, "ELEMENT_SET_NO": 999, "REV_AT_EPOCH": 87567, "BSTAR": 0.00020260782, "MEAN_MOTION_DOT": 6.95e-06, "MEAN_MOTION_DDOT": 0}, "tle": {"line1": "1 34845U 93036ABP 25353.73046163  .00000695  00000+0  20261-3 0  9996", "line2": "2 34845  74.0244 135.3011 0022593 295.1391  64.7423 14.45872035875670"}}, "geometry": {"type": "Point", "coordinates": [132.7089265776202, 5.363472469977936]}}, {"type": "Feature", "properties": {"norad_id": 34846, "name": "COSMOS 2251 DEB", "group": "cosmos-2251-debris", "lat": -9.424422848534679, "lon": -118.16454395255984, "alt_km": 724.1827106714745, "timestamp": "2025-12-21T22:41:41.854268+00:00", "meta": {"OBJECT_NAME": "COSMOS 2251 DEB", "OBJECT_ID": "1993-036ABQ", "EPOCH": "2025-12-21T11:07:37.718400", "MEAN_MOTION": 14.47259356, "ECCENTRICITY": 0.00262187, "INCLINATION": 74.0304, "RA_OF_ASC_NODE": 245.4609, "ARG_OF_PERICENTER": 310.7741, "MEAN_ANOMALY": 49.1142, "EPHEMERIS_TYPE": 0, "CLASSIFICATION_TYPE": "U", "NORAD_CAT_ID": 34846, "ELEMENT_SET_NO": 999, "REV_AT_EPOCH": 87530, "BSTAR": 0.0005506376, "MEAN_MOTION_DOT": 1.995e-05, "MEAN_MOTION_DDOT": 0}, "tle": {"line1": "1 34846U 93036ABQ 25355.46363100  .00001995  00000+0  55064-3 0  9995", "line2": "2 34846  74.0304 245.4609 0026218 310.7741  49.1142 14.47259356875307"}}, "geometry": {"type": "Point", "coordinates": [-118.16454395255984, -9.424422848534679]}}, {"type": "Feature", "properties": {"norad_id": 34852, "name": "COSMOS 2251 DEB", "group": "cosmos-2251-debris", "lat": 69.83923350569926, "lon": -62.71284466005671, "alt_km": 761.3116719558311, "timestamp": "2025-12-21T22:41:41.854277+00:00", "meta": {"OBJECT_NAME": "COSMOS 2251 DEB", "OBJECT_ID": "1993-036ABW", "EPOCH": "2025-12-21T10:38:26.088000", "MEAN_MOTION": 14.37011249, "ECCENTRICITY": 0.00165692, "INCLINATION": 74.0325, "RA_OF_ASC_NODE": 246.9652, "ARG_OF_PERICENTER": 348.3014, "MEAN_ANOMALY": 11.7752, "EPHEMERIS_TYPE": 0, "CLASSIFICATION_TYPE": "U", "NORAD_CAT_ID": 34852, "ELEMENT_SET_NO": 999, "REV_AT_EPOCH": 87659, "BSTAR": 9.6957767e-05, "MEAN_MOTION_DOT": 2.62e-06, "MEAN_MOTION_DDOT": 0}, "tle": {"line1": "1 34852U 93036ABW 25355.44335750  .00000262  00000+0  96958-4 0  9994", "line2": "2 34852  74.0325 246.9652 0016569 348.3014  11.7752 14.37011249876599"}}, "geometry": {"type": "Point", "coordinates": [-62.71284466005671, 69.83923350569926]}}, {"type": "Feature", "properties": {"norad_id": 34854, "name": "COSMOS 2251 DEB", "group": "cosmos-2251-debris", "lat": -32.32785547963993, "lon": -29.02105379021977, "alt_km": 608.2117039222749, "timestamp": "2025-12-21T22:41:41.854287+00:00", "meta": {"OBJECT_NAME": "COSMOS 2251 DEB", "OBJECT_ID": "1993-036ABY", "EPOCH": "2025-12-20T16:27:30.286080", "MEAN_MOTION": 14.76695376, "ECCENTRICITY": 0.00660109, "INCLINATION": 74.029, "RA_OF_ASC_NODE": 143.0056, "ARG_OF_PERICENTER": 253.0888, "MEAN_ANOMALY": 106.3042, "EPHEMERIS_TYPE": 0, "CLASSIFICATION_TYPE": "U", "NORAD_CAT_ID": 34854, "ELEMENT_SET_NO": 999, "REV_AT_EPOCH": 71999, "BSTAR": 0.00047616561, "MEAN_MOTION_DOT": 3.419e-05, "MEAN_MOTION_DDOT": 0}, "tle": {"line1": "1 34854U 93036ABY 25354.68576720  .00003419  00000+0  47617-3 0  9999", "line2": "2 34854  74.0290 143.0056 0066010 253.0888 106.3042 14.76695376719999"}}, "geometry": {"type": "Point", "coordinates": [-29.02105379021977, -32.32785547963993]}}, {"type": "Feature", "properties": {"norad_id": 34856, "name": "COSMOS 2251 DEB", "group": "cosmos-2251-debris", "lat": -8.69657513398566, "lon": -111.56908190288156, "alt_km": 529.4072048687822, "timestamp": "2025-12-21T22:41:41.854327+00:00", "meta": {"OBJECT_NAME": "COSMOS 2251 DEB", "OBJECT_ID": "1993-036ACA", "EPOCH": "2025-12-21T06:10:09.463008", "MEAN_MOTION": 15.06460238, "ECCENTRICITY": 0.0031595, "INCLINATION": 73.9992, "RA_OF_ASC_NODE": 67.3313, "ARG_OF_PERICENTER": 203.826, "MEAN_ANOMALY": 212.4646, "EPHEMERIS_TYPE": 0, "CLASSIFICATION_TYPE": "U", "NORAD_CAT_ID": 34856, "ELEMENT_SET_NO": 999, "REV_AT_EPOCH": 89240, "BSTAR": 0.0012375, "MEAN_MOTION_DOT": 0.00018479, "MEAN_MOTION_DDOT": 0}, "tle": {"line1": "1 34856U 93036ACA 25355.25705397  .00018479  00000+0  12375-2 0  9993", "line2": "2 34856  73.9992  67.3313 0031595 203.8260 212.4646 15.06460238892407"}}, "geometry": {"type": "Point", "coordinates": [-111.56908190288156, -8.69657513398566]}}, {"type": "Feature", "properties": {"norad_id": 34857, "name": "COSMOS 2251 DEB", "group": "cosmos-2251-debris", "lat": 64.76204861746977, "lon": 126.72014915079329, "alt_km": 726.0923628189175, "timestamp": "2025-12-21T22:41:41.854340+00:00", "meta": {"OBJECT_NAME": "COSMOS 2251 DEB", "OBJECT_ID": "1993-036ACB", "EPOCH": "2025-12-21T06:02:52.653120", "MEAN_MOTION": 14.5896988, "ECCENTRICITY": 0.0065499, "INCLINATION": 74.0163, "RA_OF_ASC_NODE": 90.5928, "ARG_OF_PERICENTER": 213.4962, "MEAN_ANOMALY": 175.5877, "EPHEMERIS_TYPE": 0, "CLASSIFICATION_TYPE": "U", "NORAD_CAT_ID": 34857, "ELEMENT_SET_NO": 999, "REV_AT_EPOCH": 88025, "BSTAR": 0.00077727, "MEAN_MOTION_DOT": 3.728e-05, "MEAN_MOTION_DDOT": 0}, "tle": {"line1": "1 34857U 93036ACB 25355.25199830  .00003728  00000+0  77727-3 0  9997", "line2": "2 34857  74.0163  90.5928 0065499 213.4962 175.5877 14.58969880880254"}}, "geometry": {"type": "Point", "coordinates": [126.72014915079329, 64.76204861746977]}}, {"type": "Feature", "properties": {"norad_id": 34859, "name": "COSMOS 2251 DEB", "group": "cosmos-2251-debris", "lat": 73.37222084253378, "lon": 66.936092742474, "alt_km": 510.1838568868534, "timestamp": "2025-12-21T22:41:41.854351+00:00", "meta": {"OBJECT_NAME": "COSMOS 2251 DEB", "OBJECT_ID": "1993-036ACD", "EPOCH": "2025-12-20T00:39:03.765024", "MEAN_MOTION": 15.15832734, "ECCENTRICITY": 0.00020914, "INCLINATION": 74.0278, "RA_OF_ASC_NODE": 324.4843, "ARG_OF_PERICENTER": 20.5726, "MEAN_ANOMALY": 48.6407, "EPHEMERIS_TYPE": 0, "CLASSIFICATION_TYPE": "U", "NORAD_CAT_ID": 34859, "ELEMENT_SET_NO": 999, "REV_AT_EPOCH": 88469, "BSTAR": 0.0027292363, "MEAN_MOTION_DOT": 0.00052535, "MEAN_MOTION_DDOT": 0}, "tle": {"line1": "1 34859U 93036ACD 25354.02712691  .00052535  00000+0  27292-2 0  9990", "line2": "2 34859  74.0278 324.4843 0002091  20.5726  48.6407 15.15832734884694"}}, "geometry": {"type": "Point", "coordinates": [66.936092742474, 73.37222084253378]}}, {"type": "Feature", "properties": {"norad_id": 34861, "name": "COSMOS 2251 DEB", "group": "cosmos-2251-debris", "lat": -53.36837618655683, "lon": 9.366263775590458, "alt_km": 562.9466670367674, "timestamp": "2025-12-21T22:41:41.854361+00:00", "meta": {"OBJECT_NAME": "COSMOS 2251 DEB", "OBJECT_ID": "1993-036ACF", "EPOCH": "2025-12-21T04:01:36.632640", "MEAN_MOTION": 15.03034303, "ECCENTRICITY": 0.00079949, "INCLINATION": 74.0181, "RA_OF_ASC_NODE": 33.6281, "ARG_OF_PERICENTER": 23.2733, "MEAN_ANOMALY": 33.2234, "EPHEMERIS_TYPE": 0, "CLASSIFICATION_TYPE": "U", "NORAD_CAT_ID": 34861, "ELEMENT_SET_NO": 999, "REV_AT_EPOCH": 88219, "BSTAR": 0.0014552587, "MEAN_MOTION_DOT": 0.00019631, "MEAN_MOTION_DDOT": 0}, "tle": {"line1": "1 34861U 93036ACF 25355.16778510  .00019631  00000+0  14553-2 0  9997", "line2": "2 34861  74.0181  33.6281 0007994  23.2733  33.2234 15.03034303882194"}}, "geometry": {"type": "Point", "coordinates": [9.366263775590458, -53.36837618655683]}}, {"type": "Feature", "properties": {"norad_id": 34874, "name": "COSMOS 2251 DEB", "group": "cosmos-2251-debris", "lat": -32.13436477882634, "lon": -112.78414628410866, "alt_km": 801.4005508245637, "timestamp": "2025-12-21T22:41:41.854371+00:00", "meta": {"OBJECT_NAME": "COSMOS 2251 DEB", "OBJECT_ID": "1993-036ACM", "EPOCH": "2025-12-19T15:14:26.431296", "MEAN_MOTION": 14.36339936, "ECCENTRICITY": 0.0050622, "INCLINATION": 74.0394, "RA_OF_ASC_NODE": 61.1016, "ARG_OF_PERICENTER": 84.2082, "MEAN_ANOMALY": 65.9606, "EPHEMERIS_TYPE": 0, "CLASSIFICATION_TYPE": "U", "NORAD_CAT_ID": 34874, "ELEMENT_SET_NO": 999, "REV_AT_EPOCH": 87143, "BSTAR": 0.00053501, "MEAN_MOTION_DOT": 1.563e-05, "MEAN_MOTION_DDOT": 0}, "tle": {"line1": "1 34874U 93036ACM 25353.63502814  .00001563  00000+0  53501-3 0  9995", "line2": "2 34874  74.0394  61.1016 0050622  84.2082  65.9606 14.36339936871431"}}, "geometry": {"type": "Point", "coordinates": [-112.78414628410866, -32.13436477882634]}}]}